UNKNOWN                 
1 82893U          26116.58284937  .00008143  00000+0  29187-2 0  9996
2 82893  98.9631 241.2813 0020817  15.8678 344.3154 14.34082362443280
UNKNOWN                 
1 82912U          26110.63933607  .00003318  00000+0  13896-2 0  9992
2 82912  65.8351 236.9875 0768791 210.2773 145.1667 13.28604300596447
UNKNOWN                 
1 82961U          26115.68185070  .00004335  00000+0  66838-2 0  9993
2 82961  99.8049 268.3009 0376070  52.9424 310.5472 13.26917587573459
UNKNOWN                 
1 82965U          26115.70665405  .00000773  00000+0  10948-2 0  9998
2 82965 100.1052 204.5509 0004032 141.4109 218.7319 13.60312119542666
UNKNOWN                 
1 83903U          26116.40348194 -.00000118  00000+0  00000+0 0  9991
2 83903   5.8537 289.4782 0122093 254.8626  77.0621  0.99112006 44990
UNKNOWN                 
1 83934U          26116.33933595 -.00000182  00000+0  00000+0 0  9993
2 83934   5.4817 296.6802 0222614 275.7941 253.8144  1.02662109 46665
UNKNOWN                 
1 84006U          26116.19625380 -.00000015  00000+0  00000+0 0  9993
2 84006  22.4293 149.9480 6168618 107.8914 325.1597  2.16230076 87131
UNKNOWN                 
1 84188U          26115.06212278  .00209898  00000+0  85425-1 0  9992
2 84188  65.0243 133.3360 3441446   2.2615 359.0044  8.20800492 51871
UNKNOWN                 
1 84232U          26115.97416506  .00052456  00000+0  26918-1 0  9990
2 84232  20.2793 195.6452 6511308 206.2737  96.1504  3.26415680108994
UNKNOWN                 
1 84236U          26115.35068453  .00001354  00000+0  81428-2 0  9999
2 84236   9.1460 275.1303 6892306 212.6552  74.6160  2.62773237117498
UNKNOWN                 
1 84292U          26114.81274712  .00001761  00000+0  11548-2 0  9996
2 84292  23.8516 335.9551 4547847 200.6803 132.5682  6.22560106236355
UNKNOWN                 
1 84407U          26115.03619068  .00000257  00000+0  45676-1 0  9993
2 84407  19.3934 283.2287 7226110 133.7057 314.8777  2.05819232 78612
UNKNOWN                 
1 84575U          26114.17469331 -.00000150  00000+0  41711-3 0  9990
2 84575  18.0641 113.6489 7127224 104.1646 338.3019  2.19856562 68375
UNKNOWN                 
1 84932U          26116.52162662  .00000351  00000+0  37841-2 0  9995
2 84932   2.0541 164.3814 6572277 208.0951 131.7009  3.00193722135836
UNKNOWN                 
1 85004U          26116.39964708  .00000956  00000+0  30405-3 0  9993
2 85004  98.4403  90.6279 0047916 116.7417  35.7548 14.41450593650294
UNKNOWN                 
1 85010U          26116.56536126  .00000968  00000+0  10505-2 0  9999
2 85010  99.2391 339.3374 0024634 261.0074 127.9884 13.75364752622451
