[{"OBJECT_NAME":"UNKNOWN","OBJECT_ID":"","EPOCH":"2026-04-26T13:59:18.185568","MEAN_MOTION":14.34082362,"ECCENTRICITY":0.0020817,"INCLINATION":98.9631,"RA_OF_ASC_NODE":241.2813,"ARG_OF_PERICENTER":15.8678,"MEAN_ANOMALY":344.3154,"EPHEMERIS_TYPE":0,"CLASSIFICATION_TYPE":"U","NORAD_CAT_ID":82893,"ELEMENT_SET_NO":999,"REV_AT_EPOCH":44328,"BSTAR":0.0029187,"MEAN_MOTION_DOT":8.143e-5,"MEAN_MOTION_DDOT":0},{"OBJECT_NAME":"UNKNOWN","OBJECT_ID":"","EPOCH":"2026-04-20T15:20:38.636448","MEAN_MOTION":13.286043,"ECCENTRICITY":0.0768791,"INCLINATION":65.8351,"RA_OF_ASC_NODE":236.9875,"ARG_OF_PERICENTER":210.2773,"MEAN_ANOMALY":145.1667,"EPHEMERIS_TYPE":0,"CLASSIFICATION_TYPE":"U","NORAD_CAT_ID":82912,"ELEMENT_SET_NO":999,"REV_AT_EPOCH":59644,"BSTAR":0.0013896,"MEAN_MOTION_DOT":3.318e-5,"MEAN_MOTION_DDOT":0},{"OBJECT_NAME":"UNKNOWN","OBJECT_ID":"","EPOCH":"2026-04-25T16:21:51.900480","MEAN_MOTION":13.26917587,"ECCENTRICITY":0.037607,"INCLINATION":99.8049,"RA_OF_ASC_NODE":268.3009,"ARG_OF_PERICENTER":52.9424,"MEAN_ANOMALY":310.5472,"EPHEMERIS_TYPE":0,"CLASSIFICATION_TYPE":"U","NORAD_CAT_ID":82961,"ELEMENT_SET_NO":999,"REV_AT_EPOCH":57345,"BSTAR":0.0066838,"MEAN_MOTION_DOT":4.335e-5,"MEAN_MOTION_DDOT":0},{"OBJECT_NAME":"UNKNOWN","OBJECT_ID":"","EPOCH":"2026-04-25T16:57:34.909920","MEAN_MOTION":13.60312119,"ECCENTRICITY":0.0004032,"INCLINATION":100.1052,"RA_OF_ASC_NODE":204.5509,"ARG_OF_PERICENTER":141.4109,"MEAN_ANOMALY":218.7319,"EPHEMERIS_TYPE":0,"CLASSIFICATION_TYPE":"U","NORAD_CAT_ID":82965,"ELEMENT_SET_NO":999,"REV_AT_EPOCH":54266,"BSTAR":0.0010948,"MEAN_MOTION_DOT":7.73e-6,"MEAN_MOTION_DDOT":0},{"OBJECT_NAME":"UNKNOWN","OBJECT_ID":"","EPOCH":"2026-04-26T09:41:00.839616","MEAN_MOTION":0.99112006,"ECCENTRICITY":0.0122093,"INCLINATION":5.8537,"RA_OF_ASC_NODE":289.4782,"ARG_OF_PERICENTER":254.8626,"MEAN_ANOMALY":77.0621,"EPHEMERIS_TYPE":0,"CLASSIFICATION_TYPE":"U","NORAD_CAT_ID":83903,"ELEMENT_SET_NO":999,"REV_AT_EPOCH":4499,"BSTAR":0,"MEAN_MOTION_DOT":-1.18e-6,"MEAN_MOTION_DDOT":0},{"OBJECT_NAME":"UNKNOWN","OBJECT_ID":"","EPOCH":"2026-04-26T08:08:38.626080","MEAN_MOTION":1.02662109,"ECCENTRICITY":0.0222614,"INCLINATION":5.4817,"RA_OF_ASC_NODE":296.6802,"ARG_OF_PERICENTER":275.7941,"MEAN_ANOMALY":253.8144,"EPHEMERIS_TYPE":0,"CLASSIFICATION_TYPE":"U","NORAD_CAT_ID":83934,"ELEMENT_SET_NO":999,"REV_AT_EPOCH":4666,"BSTAR":0,"MEAN_MOTION_DOT":-1.82e-6,"MEAN_MOTION_DDOT":0},{"OBJECT_NAME":"UNKNOWN","OBJECT_ID":"","EPOCH":"2026-04-26T04:42:36.328320","MEAN_MOTION":2.16230076,"ECCENTRICITY":0.6168618,"INCLINATION":22.4293,"RA_OF_ASC_NODE":149.948,"ARG_OF_PERICENTER":107.8914,"MEAN_ANOMALY":325.1597,"EPHEMERIS_TYPE":0,"CLASSIFICATION_TYPE":"U","NORAD_CAT_ID":84006,"ELEMENT_SET_NO":999,"REV_AT_EPOCH":8713,"BSTAR":0,"MEAN_MOTION_DOT":-1.5e-7,"MEAN_MOTION_DDOT":0},{"OBJECT_NAME":"UNKNOWN","OBJECT_ID":"","EPOCH":"2026-04-25T01:29:27.408192","MEAN_MOTION":8.20800492,"ECCENTRICITY":0.3441446,"INCLINATION":65.0243,"RA_OF_ASC_NODE":133.336,"ARG_OF_PERICENTER":2.2615,"MEAN_ANOMALY":359.0044,"EPHEMERIS_TYPE":0,"CLASSIFICATION_TYPE":"U","NORAD_CAT_ID":84188,"ELEMENT_SET_NO":999,"REV_AT_EPOCH":5187,"BSTAR":0.085425,"MEAN_MOTION_DOT":0.00209898,"MEAN_MOTION_DDOT":0},{"OBJECT_NAME":"UNKNOWN","OBJECT_ID":"","EPOCH":"2026-04-25T23:22:47.861184","MEAN_MOTION":3.2641568,"ECCENTRICITY":0.6511308,"INCLINATION":20.2793,"RA_OF_ASC_NODE":195.6452,"ARG_OF_PERICENTER":206.2737,"MEAN_ANOMALY":96.1504,"EPHEMERIS_TYPE":0,"CLASSIFICATION_TYPE":"U","NORAD_CAT_ID":84232,"ELEMENT_SET_NO":999,"REV_AT_EPOCH":10899,"BSTAR":0.026918,"MEAN_MOTION_DOT":0.00052456,"MEAN_MOTION_DDOT":0},{"OBJECT_NAME":"UNKNOWN","OBJECT_ID":"","EPOCH":"2026-04-25T08:24:59.143392","MEAN_MOTION":2.62773237,"ECCENTRICITY":0.6892306,"INCLINATION":9.146,"RA_OF_ASC_NODE":275.1303,"ARG_OF_PERICENTER":212.6552,"MEAN_ANOMALY":74.616,"EPHEMERIS_TYPE":0,"CLASSIFICATION_TYPE":"U","NORAD_CAT_ID":84236,"ELEMENT_SET_NO":999,"REV_AT_EPOCH":11749,"BSTAR":0.0081428,"MEAN_MOTION_DOT":1.354e-5,"MEAN_MOTION_DDOT":0},{"OBJECT_NAME":"UNKNOWN","OBJECT_ID":"","EPOCH":"2026-04-24T19:30:21.351168","MEAN_MOTION":6.22560106,"ECCENTRICITY":0.4547847,"INCLINATION":23.8516,"RA_OF_ASC_NODE":335.9551,"ARG_OF_PERICENTER":200.6803,"MEAN_ANOMALY":132.5682,"EPHEMERIS_TYPE":0,"CLASSIFICATION_TYPE":"U","NORAD_CAT_ID":84292,"ELEMENT_SET_NO":999,"REV_AT_EPOCH":23635,"BSTAR":0.0011548,"MEAN_MOTION_DOT":1.761e-5,"MEAN_MOTION_DDOT":0},{"OBJECT_NAME":"UNKNOWN","OBJECT_ID":"","EPOCH":"2026-04-25T00:52:06.874752","MEAN_MOTION":2.05819232,"ECCENTRICITY":0.722611,"INCLINATION":19.3934,"RA_OF_ASC_NODE":283.2287,"ARG_OF_PERICENTER":133.7057,"MEAN_ANOMALY":314.8777,"EPHEMERIS_TYPE":0,"CLASSIFICATION_TYPE":"U","NORAD_CAT_ID":84407,"ELEMENT_SET_NO":999,"REV_AT_EPOCH":7861,"BSTAR":0.045676,"MEAN_MOTION_DOT":2.57e-6,"MEAN_MOTION_DDOT":0},{"OBJECT_NAME":"UNKNOWN","OBJECT_ID":"","EPOCH":"2026-04-24T04:11:33.501984","MEAN_MOTION":2.19856562,"ECCENTRICITY":0.7127224,"INCLINATION":18.0641,"RA_OF_ASC_NODE":113.6489,"ARG_OF_PERICENTER":104.1646,"MEAN_ANOMALY":338.3019,"EPHEMERIS_TYPE":0,"CLASSIFICATION_TYPE":"U","NORAD_CAT_ID":84575,"ELEMENT_SET_NO":999,"REV_AT_EPOCH":6837,"BSTAR":0.00041711,"MEAN_MOTION_DOT":-1.5e-6,"MEAN_MOTION_DDOT":0},{"OBJECT_NAME":"UNKNOWN","OBJECT_ID":"","EPOCH":"2026-04-26T12:31:08.539968","MEAN_MOTION":3.00193722,"ECCENTRICITY":0.6572277,"INCLINATION":2.0541,"RA_OF_ASC_NODE":164.3814,"ARG_OF_PERICENTER":208.0951,"MEAN_ANOMALY":131.7009,"EPHEMERIS_TYPE":0,"CLASSIFICATION_TYPE":"U","NORAD_CAT_ID":84932,"ELEMENT_SET_NO":999,"REV_AT_EPOCH":13583,"BSTAR":0.0037841,"MEAN_MOTION_DOT":3.51e-6,"MEAN_MOTION_DDOT":0},{"OBJECT_NAME":"UNKNOWN","OBJECT_ID":"","EPOCH":"2026-04-26T09:35:29.507712","MEAN_MOTION":14.41450593,"ECCENTRICITY":0.0047916,"INCLINATION":98.4403,"RA_OF_ASC_NODE":90.6279,"ARG_OF_PERICENTER":116.7417,"MEAN_ANOMALY":35.7548,"EPHEMERIS_TYPE":0,"CLASSIFICATION_TYPE":"U","NORAD_CAT_ID":85004,"ELEMENT_SET_NO":999,"REV_AT_EPOCH":65029,"BSTAR":0.00030405,"MEAN_MOTION_DOT":9.56e-6,"MEAN_MOTION_DDOT":0},{"OBJECT_NAME":"UNKNOWN","OBJECT_ID":"","EPOCH":"2026-04-26T13:34:07.212864","MEAN_MOTION":13.75364752,"ECCENTRICITY":0.0024634,"INCLINATION":99.2391,"RA_OF_ASC_NODE":339.3374,"ARG_OF_PERICENTER":261.0074,"MEAN_ANOMALY":127.9884,"EPHEMERIS_TYPE":0,"CLASSIFICATION_TYPE":"U","NORAD_CAT_ID":85010,"ELEMENT_SET_NO":999,"REV_AT_EPOCH":62245,"BSTAR":0.0010505,"MEAN_MOTION_DOT":9.68e-6,"MEAN_MOTION_DDOT":0}]
